{
  "type": "FeatureCollection",
  "features": [
    {
      "type": "Feature",
      "properties": {
        "norad_id": 66884,
        "name": "STARLINK-36057",
        "group": "last-30-days",
        "lat": 13.600669931683875,
        "lon": 38.5715466526622,
        "alt_km": 345.66643675147225,
        "timestamp": "2025-12-21T20:41:06.758369+00:00",
        "meta_object_name": "STARLINK-36057",
        "meta_object_id": "2025-283G",
        "meta_epoch": "2025-12-21T14:00:01.999872",
        "meta_mean_motion": 15.74191378,
        "meta_eccentricity": 0.00011836,
        "meta_inclination": 53.1572,
        "meta_ra_of_asc_node": 29.5025,
        "meta_arg_of_pericenter": 86.9175,
        "meta_mean_anomaly": 150.93,
        "meta_ephemeris_type": 0,
        "meta_classification_type": "U",
        "meta_norad_cat_id": 66884,
        "meta_element_set_no": 999,
        "meta_rev_at_epoch": 385,
        "meta_bstar": -8.7308269e-05,
        "meta_mean_motion_dot": -0.00013397,
        "meta_mean_motion_ddot": 0,
        "tle_line1": "1 66884U 25283G   25355.58335648 -.00013397  00000+0 -87308-4 0  9998",
        "tle_line2": "2 66884  53.1572  29.5025 0001183  86.9175 150.9300 15.74191378  3859"
      },
      "geometry": {
        "type": "Point",
        "coordinates": [
          38.5715466526622,
          13.600669931683875
        ]
      }
    },
    {
      "type": "Feature",
      "properties": {
        "norad_id": 66885,
        "name": "STARLINK-35954",
        "group": "last-30-days",
        "lat": 12.096996188959348,
        "lon": 37.37148597726511,
        "alt_km": 345.83459495326133,
        "timestamp": "2025-12-21T20:41:06.758378+00:00",
        "meta_object_name": "STARLINK-35954",
        "meta_object_id": "2025-283H",
        "meta_epoch": "2025-12-21T14:00:01.999872",
        "meta_mean_motion": 15.74203189,
        "meta_eccentricity": 0.00010766,
        "meta_inclination": 53.1571,
        "meta_ra_of_asc_node": 29.5064,
        "meta_arg_of_pericenter": 79.5726,
        "meta_mean_anomaly": 156.3574,
        "meta_ephemeris_type": 0,
        "meta_classification_type": "U",
        "meta_norad_cat_id": 66885,
        "meta_element_set_no": 999,
        "meta_rev_at_epoch": 385,
        "meta_bstar": -0.00014394643,
        "meta_mean_motion_dot": -0.00021669,
        "meta_mean_motion_ddot": 0,
        "tle_line1": "1 66885U 25283H   25355.58335648 -.00021669  00000+0 -14395-3 0  9995",
        "tle_line2": "2 66885  53.1571  29.5064 0001076  79.5726 156.3574 15.74203189  3850"
      },
      "geometry": {
        "type": "Point",
        "coordinates": [
          37.37148597726511,
          12.096996188959348
        ]
      }
    },
    {
      "type": "Feature",
      "properties": {
        "norad_id": 66886,
        "name": "STARLINK-35900",
        "group": "last-30-days",
        "lat": 15.10768511111108,
        "lon": 39.79380203448032,
        "alt_km": 345.3499662726981,
        "timestamp": "2025-12-21T20:41:06.758396+00:00",
        "meta_object_name": "STARLINK-35900",
        "meta_object_id": "2025-283J",
        "meta_epoch": "2025-12-21T14:00:01.999872",
        "meta_mean_motion": 15.74178009,
        "meta_eccentricity": 0.0001059,
        "meta_inclination": 53.1573,
        "meta_ra_of_asc_node": 29.4979,
        "meta_arg_of_pericenter": 79.9292,
        "meta_mean_anomaly": 159.8388,
        "meta_ephemeris_type": 0,
        "meta_classification_type": "U",
        "meta_norad_cat_id": 66886,
        "meta_element_set_no": 999,
        "meta_rev_at_epoch": 385,
        "meta_bstar": 0.00012866064,
        "meta_mean_motion_dot": 0.00018245,
        "meta_mean_motion_ddot": 0,
        "tle_line1": "1 66886U 25283J   25355.58335648  .00018245  00000+0  12866-3 0  9991",
        "tle_line2": "2 66886  53.1573  29.4979 0001059  79.9292 159.8388 15.74178009  3853"
      },
      "geometry": {
        "type": "Point",
        "coordinates": [
          39.79380203448032,
          15.10768511111108
        ]
      }
    },
    {
      "type": "Feature",
      "properties": {
        "norad_id": 66887,
        "name": "STARLINK-35925",
        "group": "last-30-days",
        "lat": 16.60914400694663,
        "lon": 41.035605593740044,
        "alt_km": 345.06186526551846,
        "timestamp": "2025-12-21T20:41:06.758406+00:00",
        "meta_object_name": "STARLINK-35925",
        "meta_object_id": "2025-283K",
        "meta_epoch": "2025-12-21T14:00:01.999872",
        "meta_mean_motion": 15.74176414,
        "meta_eccentricity": 9.658e-05,
        "meta_inclination": 53.1572,
        "meta_ra_of_asc_node": 29.4943,
        "meta_arg_of_pericenter": 72.2823,
        "meta_mean_anomaly": 169.4052,
        "meta_ephemeris_type": 0,
        "meta_classification_type": "U",
        "meta_norad_cat_id": 66887,
        "meta_element_set_no": 999,
        "meta_rev_at_epoch": 385,
        "meta_bstar": 0.00011706859,
        "meta_mean_motion_dot": 0.0001654,
        "meta_mean_motion_ddot": 0,
        "tle_line1": "1 66887U 25283K   25355.58335648  .00016540  00000+0  11707-3 0  9991",
        "tle_line2": "2 66887  53.1572  29.4943 0000965  72.2823 169.4052 15.74176414  3858"
      },
      "geometry": {
        "type": "Point",
        "coordinates": [
          41.035605593740044,
          16.60914400694663
        ]
      }
    },
    {
      "type": "Feature",
      "properties": {
        "norad_id": 66888,
        "name": "STARLINK-35919",
        "group": "last-30-days",
        "lat": 18.101737258233257,
        "lon": 42.29544792687794,
        "alt_km": 344.7913869978356,
        "timestamp": "2025-12-21T20:41:06.758414+00:00",
        "meta_object_name": "STARLINK-35919",
        "meta_object_id": "2025-283L",
        "meta_epoch": "2025-12-21T14:00:01.999872",
        "meta_mean_motion": 15.74178806,
        "meta_eccentricity": 0.00010838,
        "meta_inclination": 53.1569,
        "meta_ra_of_asc_node": 29.4902,
        "meta_arg_of_pericenter": 74.3918,
        "meta_mean_anomaly": 169.215,
        "meta_ephemeris_type": 0,
        "meta_classification_type": "U",
        "meta_norad_cat_id": 66888,
        "meta_element_set_no": 999,
        "meta_rev_at_epoch": 385,
        "meta_bstar": 4.4338887e-05,
        "meta_mean_motion_dot": 5.866e-05,
        "meta_mean_motion_ddot": 0,
        "tle_line1": "1 66888U 25283L   25355.58335648  .00005866  00000+0  44339-4 0  9999",
        "tle_line2": "2 66888  53.1569  29.4902 0001083  74.3918 169.2150 15.74178806  3854"
      },
      "geometry": {
        "type": "Point",
        "coordinates": [
          42.29544792687794,
          18.101737258233257
        ]
      }
    },
    {
      "type": "Feature",
      "properties": {
        "norad_id": 66889,
        "name": "STARLINK-35852",
        "group": "last-30-days",
        "lat": 19.584341599688496,
        "lon": 43.57501941296674,
        "alt_km": 344.7101734911985,
        "timestamp": "2025-12-21T20:41:06.758424+00:00",
        "meta_object_name": "STARLINK-35852",
        "meta_object_id": "2025-283M",
        "meta_epoch": "2025-12-21T14:00:01.999872",
        "meta_mean_motion": 15.74189991,
        "meta_eccentricity": 0.00010811,
        "meta_inclination": 53.157,
        "meta_ra_of_asc_node": 29.4858,
        "meta_arg_of_pericenter": 91.5153,
        "meta_mean_anomaly": 154.0005,
        "meta_ephemeris_type": 0,
        "meta_classification_type": "U",
        "meta_norad_cat_id": 66889,
        "meta_element_set_no": 999,
        "meta_rev_at_epoch": 385,
        "meta_bstar": -3.5208782e-05,
        "meta_mean_motion_dot": -5.782e-05,
        "meta_mean_motion_ddot": 0,
        "tle_line1": "1 66889U 25283M   25355.58335648 -.00005782  00000+0 -35209-4 0  9995",
        "tle_line2": "2 66889  53.1570  29.4858 0001081  91.5153 154.0005 15.74189991  3855"
      },
      "geometry": {
        "type": "Point",
        "coordinates": [
          43.57501941296674,
          19.584341599688496
        ]
      }
    },
    {
      "type": "Feature",
      "properties": {
        "norad_id": 66890,
        "name": "STARLINK-35885",
        "group": "last-30-days",
        "lat": 21.058729951217856,
        "lon": 44.88017794169075,
        "alt_km": 344.5073713858619,
        "timestamp": "2025-12-21T20:41:06.758433+00:00",
        "meta_object_name": "STARLINK-35885",
        "meta_object_id": "2025-283N",
        "meta_epoch": "2025-12-21T14:00:01.999872",
        "meta_mean_motion": 15.74219692,
        "meta_eccentricity": 0.00010405,
        "meta_inclination": 53.157,
        "meta_ra_of_asc_node": 29.4822,
        "meta_arg_of_pericenter": 89.0001,
        "meta_mean_anomaly": 158.4297,
        "meta_ephemeris_type": 0,
        "meta_classification_type": "U",
        "meta_norad_cat_id": 66890,
        "meta_element_set_no": 999,
        "meta_rev_at_epoch": 385,
        "meta_bstar": -0.00072122889,
        "meta_mean_motion_dot": -0.00105087,
        "meta_mean_motion_ddot": 0,
        "tle_line1": "1 66890U 25283N   25355.58335648 -.00105087  00000+0 -72123-3 0  9991",
        "tle_line2": "2 66890  53.1570  29.4822 0001040  89.0001 158.4297 15.74219692  3850"
      },
      "geometry": {
        "type": "Point",
        "coordinates": [
          44.88017794169075,
          21.058729951217856
        ]
      }
    }
  ]
}